CCSDS_OMM_VERS = 2.0
CREATION_DATE  = 
ORIGINATOR     = 

OBJECT_NAME    = STARLINK-35510
OBJECT_ID      = 2025-257T
CENTER_NAME    = EARTH
REF_FRAME      = TEME
TIME_SYSTEM    = UTC
MEAN_ELEMENT_THEORY = SGP/SGP4

EPOCH          = 2025-12-02T06:00:02.999808
MEAN_MOTION    = 15.49329571
ECCENTRICITY   = .00012678
INCLINATION    = 53.1587
RA_OF_ASC_NODE = 313.9512
ARG_OF_PERICENTER = 86.7347
MEAN_ANOMALY   = 286.1734

EPHEMERIS_TYPE = 0
CLASSIFICATION_TYPE = U
NORAD_CAT_ID   = 66397
ELEMENT_SET_NO = 999
REV_AT_EPOCH   = 481
BSTAR          = -.14707378E-2
MEAN_MOTION_DOT = -.81457E-3
MEAN_MOTION_DDOT = 0

CCSDS_OMM_VERS = 2.0
CREATION_DATE  = 
ORIGINATOR     = 

OBJECT_NAME    = STARLINK-35642
OBJECT_ID      = 2025-257U
CENTER_NAME    = EARTH
REF_FRAME      = TEME
TIME_SYSTEM    = UTC
MEAN_ELEMENT_THEORY = SGP/SGP4

EPOCH          = 2025-12-02T06:00:02.999808
MEAN_MOTION    = 15.49327238
ECCENTRICITY   = .00014146
INCLINATION    = 53.1587
RA_OF_ASC_NODE = 313.9466
ARG_OF_PERICENTER = 92.2942
MEAN_ANOMALY   = 282.5331

EPHEMERIS_TYPE = 0
CLASSIFICATION_TYPE = U
NORAD_CAT_ID   = 66398
ELEMENT_SET_NO = 999
REV_AT_EPOCH   = 481
BSTAR          = -.14466177E-2
MEAN_MOTION_DOT = -.80137E-3
MEAN_MOTION_DDOT = 0

CCSDS_OMM_VERS = 2.0
CREATION_DATE  = 
ORIGINATOR     = 

OBJECT_NAME    = STARLINK-35657
OBJECT_ID      = 2025-257V
CENTER_NAME    = EARTH
REF_FRAME      = TEME
TIME_SYSTEM    = UTC
MEAN_ELEMENT_THEORY = SGP/SGP4

EPOCH          = 2025-12-02T06:00:02.999808
MEAN_MOTION    = 15.49329494
ECCENTRICITY   = .00014855
INCLINATION    = 53.1587
RA_OF_ASC_NODE = 313.9429
ARG_OF_PERICENTER = 93.7681
MEAN_ANOMALY   = 282.9785

EPHEMERIS_TYPE = 0
CLASSIFICATION_TYPE = U
NORAD_CAT_ID   = 66399
ELEMENT_SET_NO = 999
REV_AT_EPOCH   = 481
BSTAR          = -.15192575E-2
MEAN_MOTION_DOT = -.84103E-3
MEAN_MOTION_DDOT = 0

CCSDS_OMM_VERS = 2.0
CREATION_DATE  = 
ORIGINATOR     = 

OBJECT_NAME    = STARLINK-35667
OBJECT_ID      = 2025-257W
CENTER_NAME    = EARTH
REF_FRAME      = TEME
TIME_SYSTEM    = UTC
MEAN_ELEMENT_THEORY = SGP/SGP4

EPOCH          = 2025-12-02T06:00:02.999808
MEAN_MOTION    = 15.49330344
ECCENTRICITY   = .00015923
INCLINATION    = 53.1586
RA_OF_ASC_NODE = 313.9342
ARG_OF_PERICENTER = 93.5934
MEAN_ANOMALY   = 286.9855

EPHEMERIS_TYPE = 0
CLASSIFICATION_TYPE = U
NORAD_CAT_ID   = 66400
ELEMENT_SET_NO = 999
REV_AT_EPOCH   = 481
BSTAR          = -.15161432E-2
MEAN_MOTION_DOT = -.83937E-3
MEAN_MOTION_DDOT = 0

CCSDS_OMM_VERS = 2.0
CREATION_DATE  = 
ORIGINATOR     = 

OBJECT_NAME    = STARLINK-35668
OBJECT_ID      = 2025-257X
CENTER_NAME    = EARTH
REF_FRAME      = TEME
TIME_SYSTEM    = UTC
MEAN_ELEMENT_THEORY = SGP/SGP4

EPOCH          = 2025-12-02T06:00:02.999808
MEAN_MOTION    = 15.49402692
ECCENTRICITY   = .00013345
INCLINATION    = 53.1586
RA_OF_ASC_NODE = 313.9308
ARG_OF_PERICENTER = 91.0693
MEAN_ANOMALY   = 291.4409

EPHEMERIS_TYPE = 0
CLASSIFICATION_TYPE = U
NORAD_CAT_ID   = 66401
ELEMENT_SET_NO = 999
REV_AT_EPOCH   = 481
BSTAR          = -.43788915E-2
MEAN_MOTION_DOT = -.237523E-2
MEAN_MOTION_DDOT = 0

CCSDS_OMM_VERS = 2.0
CREATION_DATE  = 
ORIGINATOR     = 

OBJECT_NAME    = STARLINK-35644
OBJECT_ID      = 2025-257Y
CENTER_NAME    = EARTH
REF_FRAME      = TEME
TIME_SYSTEM    = UTC
MEAN_ELEMENT_THEORY = SGP/SGP4

EPOCH          = 2025-12-02T06:00:02.999808
MEAN_MOTION    = 15.49327563
ECCENTRICITY   = .00014386
INCLINATION    = 53.1587
RA_OF_ASC_NODE = 313.9385
ARG_OF_PERICENTER = 92.9385
MEAN_ANOMALY   = 285.7253

EPHEMERIS_TYPE = 0
CLASSIFICATION_TYPE = U
NORAD_CAT_ID   = 66402
ELEMENT_SET_NO = 999
REV_AT_EPOCH   = 481
BSTAR          = -.14569666E-2
MEAN_MOTION_DOT = -.80702E-3
MEAN_MOTION_DDOT = 0

CCSDS_OMM_VERS = 2.0
CREATION_DATE  = 
ORIGINATOR     = 

OBJECT_NAME    = STARLINK-35602
OBJECT_ID      = 2025-257Z
CENTER_NAME    = EARTH
REF_FRAME      = TEME
TIME_SYSTEM    = UTC
MEAN_ELEMENT_THEORY = SGP/SGP4

EPOCH          = 2025-12-02T06:00:02.999808
MEAN_MOTION    = 15.49322272
ECCENTRICITY   = .00016004
INCLINATION    = 53.1586
RA_OF_ASC_NODE = 313.9267
ARG_OF_PERICENTER = 92.4722
MEAN_ANOMALY   = 291.9430

EPHEMERIS_TYPE = 0
CLASSIFICATION_TYPE = U
NORAD_CAT_ID   = 66403
ELEMENT_SET_NO = 999
REV_AT_EPOCH   = 481
BSTAR          = -.12751902E-2
MEAN_MOTION_DOT = -.70766E-3
MEAN_MOTION_DDOT = 0

CCSDS_OMM_VERS = 2.0
CREATION_DATE  = 
ORIGINATOR     = 

OBJECT_NAME    = STARLINK-35691
OBJECT_ID      = 2025-257AA
CENTER_NAME    = EARTH
REF_FRAME      = TEME
TIME_SYSTEM    = UTC
MEAN_ELEMENT_THEORY = SGP/SGP4

EPOCH          = 2025-12-02T06:00:02.999808
MEAN_MOTION    = 15.49324581
ECCENTRICITY   = .00014584
INCLINATION    = 53.1586
RA_OF_ASC_NODE = 313.9223
ARG_OF_PERICENTER = 91.6403
MEAN_ANOMALY   = 294.6931

EPHEMERIS_TYPE = 0
CLASSIFICATION_TYPE = U
NORAD_CAT_ID   = 66404
ELEMENT_SET_NO = 999
REV_AT_EPOCH   = 481
BSTAR          = -.14035962E-2
MEAN_MOTION_DOT = -.77783E-3
MEAN_MOTION_DDOT = 0

CCSDS_OMM_VERS = 2.0
CREATION_DATE  = 
ORIGINATOR     = 

OBJECT_NAME    = STARLINK-35683
OBJECT_ID      = 2025-257AB
CENTER_NAME    = EARTH
REF_FRAME      = TEME
TIME_SYSTEM    = UTC
MEAN_ELEMENT_THEORY = SGP/SGP4

EPOCH          = 2025-12-02T06:00:02.999808
MEAN_MOTION    = 15.49336899
ECCENTRICITY   = .00013537
INCLINATION    = 53.1586
RA_OF_ASC_NODE = 313.9177
ARG_OF_PERICENTER = 93.3298
MEAN_ANOMALY   = 294.9166

EPHEMERIS_TYPE = 0
CLASSIFICATION_TYPE = U
NORAD_CAT_ID   = 66405
ELEMENT_SET_NO = 999
REV_AT_EPOCH   = 465
BSTAR          = -.17570919E-2
MEAN_MOTION_DOT = -.97064E-3
MEAN_MOTION_DDOT = 0

CCSDS_OMM_VERS = 2.0
CREATION_DATE  = 
ORIGINATOR     = 

OBJECT_NAME    = STARLINK-34840
OBJECT_ID      = 2025-257AC
CENTER_NAME    = EARTH
REF_FRAME      = TEME
TIME_SYSTEM    = UTC
MEAN_ELEMENT_THEORY = SGP/SGP4

EPOCH          = 2025-12-02T06:00:02.999808
MEAN_MOTION    = 15.49326872
ECCENTRICITY   = .00014763
INCLINATION    = 53.1586
RA_OF_ASC_NODE = 313.9062
ARG_OF_PERICENTER = 92.9563
MEAN_ANOMALY   = 301.0415

EPHEMERIS_TYPE = 0
CLASSIFICATION_TYPE = U
NORAD_CAT_ID   = 66406
ELEMENT_SET_NO = 999
REV_AT_EPOCH   = 475
BSTAR          = -.14185476E-2
MEAN_MOTION_DOT = -.78605E-3
MEAN_MOTION_DDOT = 0

CCSDS_OMM_VERS = 2.0
CREATION_DATE  = 
ORIGINATOR     = 

OBJECT_NAME    = STARLINK-35686
OBJECT_ID      = 2025-257AD
CENTER_NAME    = EARTH
REF_FRAME      = TEME
TIME_SYSTEM    = UTC
MEAN_ELEMENT_THEORY = SGP/SGP4

EPOCH          = 2025-12-02T06:00:02.999808
MEAN_MOTION    = 15.49325082
ECCENTRICITY   = .00015747
INCLINATION    = 53.1586
RA_OF_ASC_NODE = 313.9140
ARG_OF_PERICENTER = 92.4035
MEAN_ANOMALY   = 297.7590

EPHEMERIS_TYPE = 0
CLASSIFICATION_TYPE = U
NORAD_CAT_ID   = 66407
ELEMENT_SET_NO = 999
REV_AT_EPOCH   = 481
BSTAR          = -.13389511E-2
MEAN_MOTION_DOT = -.74257E-3
MEAN_MOTION_DDOT = 0

CCSDS_OMM_VERS = 2.0
CREATION_DATE  = 
ORIGINATOR     = 

OBJECT_NAME    = STARLINK-35679
OBJECT_ID      = 2025-257AE
CENTER_NAME    = EARTH
REF_FRAME      = TEME
TIME_SYSTEM    = UTC
MEAN_ELEMENT_THEORY = SGP/SGP4

EPOCH          = 2025-12-02T06:00:02.999808
MEAN_MOTION    = 15.49319745
ECCENTRICITY   = .00013467
INCLINATION    = 53.1585
RA_OF_ASC_NODE = 313.9114
ARG_OF_PERICENTER = 91.5200
MEAN_ANOMALY   = 300.5575

EPHEMERIS_TYPE = 0
CLASSIFICATION_TYPE = U
NORAD_CAT_ID   = 66408
ELEMENT_SET_NO = 999
REV_AT_EPOCH   = 481
BSTAR          = -.11418024E-2
MEAN_MOTION_DOT = -.63462E-3
MEAN_MOTION_DDOT = 0

