STARLINK-35510          
1 66397U 25257T   25336.25003472 -.00081457  00000+0 -14707-2 0  9991
2 66397  53.1587 313.9512 0001267  86.7347 286.1734 15.49329571  4817
STARLINK-35642          
1 66398U 25257U   25336.25003472 -.00080137  00000+0 -14466-2 0  9998
2 66398  53.1587 313.9466 0001414  92.2942 282.5331 15.49327238  4814
STARLINK-35657          
1 66399U 25257V   25336.25003472 -.00084103  00000+0 -15193-2 0  9994
2 66399  53.1587 313.9429 0001485  93.7681 282.9785 15.49329494  4811
STARLINK-35667          
1 66400U 25257W   25336.25003472 -.00083937  00000+0 -15161-2 0  9996
2 66400  53.1586 313.9342 0001592  93.5934 286.9855 15.49330344  4813
STARLINK-35668          
1 66401U 25257X   25336.25003472 -.00237523  00000+0 -43789-2 0  9996
2 66401  53.1586 313.9308 0001334  91.0693 291.4409 15.49402692  4817
STARLINK-35644          
1 66402U 25257Y   25336.25003472 -.00080702  00000+0 -14570-2 0  9998
2 66402  53.1587 313.9385 0001438  92.9385 285.7253 15.49327563  4813
STARLINK-35602          
1 66403U 25257Z   25336.25003472 -.00070766  00000+0 -12752-2 0  9998
2 66403  53.1586 313.9267 0001600  92.4722 291.9430 15.49322272  4811
STARLINK-35691          
1 66404U 25257AA  25336.25003472 -.00077783  00000+0 -14036-2 0  9992
2 66404  53.1586 313.9223 0001458  91.6403 294.6931 15.49324581  4813
STARLINK-35683          
1 66405U 25257AB  25336.25003472 -.00097064  00000+0 -17571-2 0  9994
2 66405  53.1586 313.9177 0001353  93.3298 294.9166 15.49336899  4657
STARLINK-34840          
1 66406U 25257AC  25336.25003472 -.00078605  00000+0 -14185-2 0  9993
2 66406  53.1586 313.9062 0001476  92.9563 301.0415 15.49326872  4755
STARLINK-35686          
1 66407U 25257AD  25336.25003472 -.00074257  00000+0 -13390-2 0  9990
2 66407  53.1586 313.9140 0001574  92.4035 297.7590 15.49325082  4815
STARLINK-35679          
1 66408U 25257AE  25336.25003472 -.00063462  00000+0 -11418-2 0  9996
2 66408  53.1585 313.9114 0001346  91.5200 300.5575 15.49319745  4812
